OBJECT_NAME,OBJECT_ID,EPOCH,MEAN_MOTION,ECCENTRICITY,INCLINATION,RA_OF_ASC_NODE,ARG_OF_PERICENTER,MEAN_ANOMALY,EPHEMERIS_TYPE,CLASSIFICATION_TYPE,NORAD_CAT_ID,ELEMENT_SET_NO,REV_AT_EPOCH,BSTAR,MEAN_MOTION_DOT,MEAN_MOTION_DDOT
STARLINK-38047,2026-150G,2026-07-23T11:08:52.224576,15.75243455,.0001336,97.2839,43.2451,78.3371,281.8044,0,U,69745,999,462,.11994E-2,.183074E-2,0
STARLINK-38046,2026-150H,2026-07-23T12:16:27.977088,15.75291836,.0002024,97.2859,43.3353,109.3421,250.8063,0,U,69746,999,463,.15923E-2,.24541E-2,0
STARLINK-38067,2026-150J,2026-07-23T11:26:39.429600,15.75260331,.0001719,97.2841,43.2279,105.4067,254.7388,0,U,69747,999,462,.15676E-2,.241151E-2,0
STARLINK-37988,2026-150K,2026-07-23T02:15:14.380416,15.75187504,.00015149,97.2841,42.8299,62.2854,297.8564,0,U,69748,999,456,.14391003E-2,.220123E-2,0
STARLINK-37987,2026-150L,2026-07-23T11:18:01.248192,15.75249940,.0001832,97.2835,43.2366,51.7168,308.4262,0,U,69749,999,462,.13296E-2,.203511E-2,0
STARLINK-38037,2026-150M,2026-07-23T20:00:01.999008,15.75255529,.0001355,97.2841,43.6904,90.4642,333.9330,0,U,69750,999,468,-.11443E-2,-.167973E-2,0
STARLINK-38049,2026-150N,2026-07-23T11:46:16.963104,15.80917653,.0001158,97.2851,43.3642,104.8113,255.3284,0,U,69751,999,463,.13165E-2,.260937E-2,0
STARLINK-38029,2026-150P,2026-07-23T10:54:08.166816,15.75274901,.0001987,97.2830,43.2590,100.0179,260.1310,0,U,69752,999,462,.17175E-2,.265141E-2,0
STARLINK-37965,2026-150Q,2026-07-23T11:03:45.933120,15.75262442,.0001002,97.2836,43.2487,82.7735,277.3644,0,U,69753,999,462,.143E-2,.219421E-2,0
STARLINK-38048,2026-150R,2026-07-23T02:30:32.459040,15.80905064,.00010304,97.2862,42.9698,56.6178,303.5189,0,U,69754,999,457,.14526759E-2,.288696E-2,0
STARLINK-38006,2026-150S,2026-07-23T03:13:10.529760,15.75224518,.00010193,97.2845,42.9300,96.8677,263.2704,0,U,69755,999,457,.59204697E-3,.89237E-3,0
STARLINK-38036,2026-150T,2026-07-23T12:12:24.175296,15.75282261,.0001509,97.2839,43.3412,99.3883,260.7553,0,U,69756,999,463,.16191E-2,.24955E-2,0
STARLINK-38058,2026-150U,2026-07-23T11:57:39.766752,15.75284274,.000165,97.2848,43.3546,113.5955,246.5483,0,U,69757,999,463,.20288E-2,.315205E-2,0
STARLINK-38066,2026-150V,2026-07-23T20:00:01.999008,15.75164139,.0001302,97.2841,43.7164,104.7009,17.6915,0,U,69758,999,468,-.46636E-3,-.69053E-3,0
STARLINK-38035,2026-150W,2026-07-23T20:00:01.999008,15.75177111,.0001227,97.2846,43.7396,90.8206,85.5858,0,U,69759,999,468,-.83764E-4,-.12598E-3,0
STARLINK-38056,2026-150X,2026-07-23T06:52:22.749024,15.80921132,.0001683,97.2847,43.1836,70.6505,289.4945,0,U,69760,999,460,.16228E-2,.324076E-2,0
STARLINK-38069,2026-150Y,2026-07-23T11:48:31.087872,15.75286718,.0002997,97.2846,43.3628,83.3222,276.8384,0,U,69761,999,463,.13112E-2,.200971E-2,0
STARLINK-38019,2026-150Z,2026-07-23T01:40:41.126880,15.75230661,.00012636,97.2839,42.8642,101.9657,258.1750,0,U,69762,999,456,.1219438E-2,.186102E-2,0
KUIPER-00258,2026-151A,2026-07-23T19:07:49.922112,15.34359696,.0010702,51.8663,139.1215,188.8753,171.2045,0,U,69763,999,333,.81396E-3,.27257E-3,0
KUIPER-00526,2026-151B,2026-07-23T20:00:01.999008,15.32133190,.0005538,51.8783,138.6819,165.9871,167.4624,0,U,69764,999,346,-.56314E-1,-.1615045E-1,0
KUIPER-00558,2026-151C,2026-07-23T20:00:01.999008,15.26132474,.0006803,51.8817,139.0210,179.8534,344.6815,0,U,69765,999,394,-.77413E-1,-.1821096E-1,0
KUIPER-00569,2026-151D,2026-07-23T19:55:33.523104,15.37651829,.0005135,51.8784,138.6136,167.3253,192.7864,0,U,69766,999,334,.98554E-3,.368E-3,0
KUIPER-00589,2026-151E,2026-07-23T20:00:01.999008,15.31485663,.0005831,51.8767,138.6803,171.3562,152.9447,0,U,69767,999,398,-.5441E-1,-.1513888E-1,0
KUIPER-00598,2026-151F,2026-07-23T16:00:01.998720,15.34205037,.000877,51.8645,139.7586,191.7943,160.0178,0,U,69768,999,386,.1781E-2,.60024E-3,0
KUIPER-00604,2026-151G,2026-07-23T02:31:29.053632,15.38119408,.0002639,51.8797,142.0067,125.8861,234.2372,0,U,69769,999,323,-.15640177E-2,-.59555E-3,0
KUIPER-00609,2026-151H,2026-07-23T10:10:58.501344,15.38809442,.0001112,51.8802,140.3956,69.8751,290.2356,0,U,69770,999,328,.70317E-3,.27115E-3,0
KUIPER-00611,2026-151J,2026-07-23T13:21:55.723680,15.38628893,.0001527,51.8815,139.7806,143.5876,216.5215,0,U,69771,999,330,.74925E-3,.28753E-3,0
KUIPER-00612,2026-151K,2026-07-23T19:46:20.233056,15.38137156,.0004071,51.8794,138.5728,143.9984,216.1278,0,U,69772,999,334,.10306E-2,.39123E-3,0
KUIPER-00614,2026-151L,2026-07-23T00:59:34.561536,15.38242293,.00032226,51.8797,142.3282,153.6537,206.4614,0,U,69773,999,322,.7671614E-3,.29081E-3,0
KUIPER-00615,2026-151M,2026-07-23T20:00:01.999008,15.34616040,.0006594,51.8782,138.6968,182.5212,154.3952,0,U,69774,999,217,-.24562E-1,-.778392E-2,0
